GLOBALSTAR M057         
1 25943U 99058A   25167.78768967 -.00000049  00000+0  39508-3 0  9994
2 25943  52.0001 349.3385 0003008  32.0992 328.0041 12.24821983166881
GLOBALSTAR M059         
1 25944U 99058B   25167.86680605 -.00000062  00000+0  29454-3 0  9990
2 25944  51.9989 208.0410 0000585 274.1880 257.5118 11.99979666574008
GLOBALSTAR M056         
1 25945U 99058C   25167.86754617 -.00000006  00000+0  95350-3 0  9992
2 25945  51.9938 210.0066 0001307 183.6678 347.4341 12.04781765162586
GLOBALSTAR M031         
1 25946U 99058D   25167.08503541 -.00000151  00000+0 -61551-3 0  9993
2 25946  51.9958 104.5385 0000930 164.1164 208.9545 12.16036250164411
GLOBALSTAR M039         
1 25961U 99062A   25167.53151843 -.00000035  00000+0  38398-3 0  9992
2 25961  51.9850 270.7149 0002176 355.0237   5.0608 12.62328470180131
GLOBALSTAR M034         
1 25962U 99062B   25167.85280213 -.00000052  00000+0  46742-3 0  9993
2 25962  51.9895  12.2563 0014811  42.6672 330.7627 11.79447209138356
GLOBALSTAR M061         
1 25964U 99062D   25167.80884743 -.00000110  00000+0 -48523-3 0  9993
2 25964  51.9767 196.4016 0006015 320.9719 210.1419 11.76775849121134
